CZ-4B R/B               
1 67132U 25300B   25365.84118213  .00055316  31762-5  24195-3 0  9996
2 67132  97.5610  81.0876 0162680 319.8916  39.0424 15.67589119  2465
KUIPER-00144            
1 67133U 25301A   26001.68677522  .00028602  00000+0  81841-3 0  9995
2 67133  51.8704  28.9415 0006403 138.5994 221.5478 15.35712003  3434
KUIPER-00164            
1 67134U 25301B   26001.61425104  .00054439  00000+0  15118-2 0  9996
2 67134  51.8727  29.2064 0003232 121.0220 239.1084 15.36354413  3605
KUIPER-00175            
1 67135U 25301C   26001.67414645  .00055917  00000+0  15265-2 0  9996
2 67135  51.8745  28.8548 0002657  71.5379 288.5896 15.36876701  3509
KUIPER-00179            
1 67136U 25301D   26001.67766575  .00059300  00000+0  16394-2 0  9993
2 67136  51.8741  28.8796 0003315 100.6052 259.5308 15.36455665  3615
KUIPER-00181            
1 67137U 25301E   26001.76307765  .00047261  00000+0  13863-2 0  9997
2 67137  51.8639  28.6969 0010458 164.3119 195.8192 15.34657222  3602
KUIPER-00183            
1 67138U 25301F   26001.76646659  .00071302  00000+0  20944-2 0  9997
2 67138  51.8615  28.7160 0011119 167.0157 193.1116 15.34422514  3610
KUIPER-00184            
1 67139U 25301G   26001.76225782  .00049936  00000+0  14606-2 0  9994
2 67139  51.8628  28.6898 0009289 163.1917 196.9378 15.34732243  3724
KUIPER-00186            
1 67140U 25301H   26001.56086113  .00049671  00000+0  14239-2 0  9995
2 67140  51.8685  29.5957 0007787 147.8743 212.2719 15.35380254  3411
KUIPER-00187            
1 67141U 25301J   26001.68255102  .00019849  00000+0  56549-3 0  9990
2 67141  51.8713  28.9145 0004433 127.2256 232.9135 15.36076013  3431
KUIPER-00188            
1 67142U 25301K   26001.62695436  .00045353  00000+0  13045-2 0  9995
2 67142  51.8693  29.2883 0007797 154.6154 205.5216 15.35315518  3429
KUIPER-00191            
1 67143U 25301L   26001.62467884  .00066714  00000+0  19007-2 0  9998
2 67143  51.8673  29.2732 0006778 147.1779 212.9629 15.35449035  3454
